start=new Date('2022-09-18T00:00:00.000Z').valueOf();
sats=[{"TIME_SYSTEM":"UTC","FILE":"3576621","MEAN_ELEMENT_THEORY":"SGP4","EPHEMERIS_TYPE":"0","PERIOD":"95.592","NORAD_CAT_ID":"45699","CENTER_NAME":"EARTH","RA_OF_ASC_NODE":"332.4629","ELEMENT_SET_NO":"999","BSTAR":"0.00017225000000","OBJECT_TYPE":"PAYLOAD","MEAN_MOTION_DOT":"0.00002285","ARG_OF_PERICENTER":"85.0054","OBJECT_NAME":"STARLINK-1398","ECCENTRICITY":"0.00012180","OBJECT_ID":"2020-035AU","REF_FRAME":"TEME","TLE_LINE1":"1 45699U 20035AU  22260.89683365  .00002285  00000-0  17225-3 0  9990","RCS_SIZE":"LARGE","INCLINATION":"53.0548","MEAN_ANOMALY":"275.1074","EPOCH":"2022-09-17T21:31:26.427360","TLE_LINE2":"2 45699  53.0548 332.4629 0001218  85.0054 275.1074 15.06400277127911","PERIAPSIS":"546.369","SITE":"AFETR","DECAY_DATE":null,"COUNTRY_CODE":"US","LAUNCH_DATE":"2020-06-04","MEAN_MOTION_DDOT":"0.0000000000000","REV_AT_EPOCH":"12791","MEAN_MOTION":"15.06400277","GP_ID":"212866967","APOAPSIS":"548.056","CLASSIFICATION_TYPE":"U","SEMIMAJOR_AXIS":"6925.348"},{"RA_OF_ASC_NODE":"334.2493","NORAD_CAT_ID":"45700","CENTER_NAME":"EARTH","OBJECT_TYPE":"PAYLOAD","ELEMENT_SET_NO":"999","BSTAR":"0.00002341100000","TIME_SYSTEM":"UTC","MEAN_ELEMENT_THEORY":"SGP4","FILE":"3576375","PERIOD":"95.593","EPHEMERIS_TYPE":"0","ECCENTRICITY":"0.00013700","REF_FRAME":"TEME","TLE_LINE1":"1 45700U 20035AV  22260.49507794  .00000067  00000-0  23411-4 0  9991","OBJECT_ID":"2020-035AV","ARG_OF_PERICENTER":"94.2597","OBJECT_NAME":"STARLINK-1400","MEAN_MOTION_DOT":"0.00000067","TLE_LINE2":"2 45700  53.0572 334.2493 0001370  94.2597 265.8549 15.06383652127856","COUNTRY_CODE":"US","PERIAPSIS":"546.315","SITE":"AFETR","DECAY_DATE":null,"RCS_SIZE":"LARGE","EPOCH":"2022-09-17T11:52:54.734016","MEAN_ANOMALY":"265.8549","INCLINATION":"53.0572","APOAPSIS":"548.212","CLASSIFICATION_TYPE":"U","SEMIMAJOR_AXIS":"6925.399","LAUNCH_DATE":"2020-06-04","REV_AT_EPOCH":"12785","MEAN_MOTION_DDOT":"0.0000000000000","GP_ID":"212810244","MEAN_MOTION":"15.06383652"},{"ELEMENT_SET_NO":"999","BSTAR":"0.00000568770000","OBJECT_TYPE":"PAYLOAD","NORAD_CAT_ID":"45701","CENTER_NAME":"EARTH","RA_OF_ASC_NODE":"333.8351","EPHEMERIS_TYPE":"0","PERIOD":"95.593","TIME_SYSTEM":"UTC","FILE":"3576621","MEAN_ELEMENT_THEORY":"SGP4","OBJECT_ID":"2020-035AW","REF_FRAME":"TEME","TLE_LINE1":"1 45701U 20035AW  22260.59090288 -.00000197  00000-0  56877-5 0  9996","ECCENTRICITY":"0.00014510","MEAN_MOTION_DOT":"-0.00000197","OBJECT_NAME":"STARLINK-1403","ARG_OF_PERICENTER":"71.4975","PERIAPSIS":"546.240","SITE":"AFETR","DECAY_DATE":null,"COUNTRY_CODE":"US","TLE_LINE2":"2 45701  53.0558 333.8351 0001451  71.4975 288.6171 15.06389656127861","MEAN_ANOMALY":"288.6171","INCLINATION":"53.0558","EPOCH":"2022-09-17T14:10:54.008832","RCS_SIZE":"LARGE","CLASSIFICATION_TYPE":"U","SEMIMAJOR_AXIS":"6925.380","APOAPSIS":"548.250","MEAN_MOTION":"15.06389656","GP_ID":"212867966","LAUNCH_DATE":"2020-06-04","MEAN_MOTION_DDOT":"0.0000000000000","REV_AT_EPOCH":"12786"},{"NORAD_CAT_ID":"45702","CENTER_NAME":"EARTH","RA_OF_ASC_NODE":"334.2049","ELEMENT_SET_NO":"999","BSTAR":"-0.00001279700000","OBJECT_TYPE":"PAYLOAD","TIME_SYSTEM":"UTC","MEAN_ELEMENT_THEORY":"SGP4","FILE":"3576375","EPHEMERIS_TYPE":"0","PERIOD":"95.593","ECCENTRICITY":"0.00012400","OBJECT_ID":"2020-035AX","REF_FRAME":"TEME","TLE_LINE1":"1 45702U 20035AX  22260.50613091 -.00000472  00000-0 -12797-4 0  9990","MEAN_MOTION_DOT":"-0.00000472","ARG_OF_PERICENTER":"96.1146","OBJECT_NAME":"STARLINK-1405","TLE_LINE2":"2 45702  53.0564 334.2049 0001240  96.1146 263.9985 15.06390617127855","PERIAPSIS":"546.384","SITE":"AFETR","DECAY_DATE":null,"COUNTRY_CODE":"US","RCS_SIZE":"LARGE","INCLINATION":"53.0564","MEAN_ANOMALY":"263.9985","EPOCH":"2022-09-17T12:08:49.710624","APOAPSIS":"548.101","CLASSIFICATION_TYPE":"U","SEMIMAJOR_AXIS":"6925.377","LAUNCH_DATE":"2020-06-04","REV_AT_EPOCH":"12785","MEAN_MOTION_DDOT":"0.0000000000000","MEAN_MOTION":"15.06390617","GP_ID":"212811232"},{"MEAN_MOTION_DOT":"-0.00000575","OBJECT_NAME":"STARLINK-1407","ARG_OF_PERICENTER":"80.5387","ECCENTRICITY":"0.00012590","OBJECT_ID":"2020-035AY","TLE_LINE1":"1 45703U 20035AY  22260.43609679 -.00000575  00000-0 -19711-4 0  9997","REF_FRAME":"TEME","MEAN_ELEMENT_THEORY":"SGP4","FILE":"3576375","TIME_SYSTEM":"UTC","EPHEMERIS_TYPE":"0","PERIOD":"95.593","CENTER_NAME":"EARTH","NORAD_CAT_ID":"45703","RA_OF_ASC_NODE":"334.5347","BSTAR":"-0.00001971100000","ELEMENT_SET_NO":"999","OBJECT_TYPE":"PAYLOAD","LAUNCH_DATE":"2020-06-04","REV_AT_EPOCH":"12784","MEAN_MOTION_DDOT":"0.0000000000000","MEAN_MOTION":"15.06390263","GP_ID":"212809994","APOAPSIS":"548.115","SEMIMAJOR_AXIS":"6925.378","CLASSIFICATION_TYPE":"U","RCS_SIZE":"LARGE","MEAN_ANOMALY":"279.5744","INCLINATION":"53.0548","EPOCH":"2022-09-17T10:27:58.762656","TLE_LINE2":"2 45703  53.0548 334.5347 0001259  80.5387 279.5744 15.06390263127848","DECAY_DATE":null,"SITE":"AFETR","PERIAPSIS":"546.371","COUNTRY_CODE":"US"},{"CLASSIFICATION_TYPE":"U","SEMIMAJOR_AXIS":"6925.280","APOAPSIS":"548.013","GP_ID":"212866717","MEAN_MOTION":"15.06422494","REV_AT_EPOCH":"12747","LAUNCH_DATE":"2020-06-04","MEAN_MOTION_DDOT":"0.0000000000000","COUNTRY_CODE":"US","PERIAPSIS":"546.276","DECAY_DATE":null,"SITE":"AFETR","TLE_LINE2":"2 45704  53.0553   3.2279 0001254  69.4605 290.6519 15.06422494127478","EPOCH":"2022-09-17T17:27:14.491584","MEAN_ANOMALY":"290.6519","INCLINATION":"53.0553","RCS_SIZE":"LARGE","REF_FRAME":"TEME","TLE_LINE1":"1 45704U 20035AZ  22260.72725106 -.00007766  00000-0 -50273-3 0  9990","OBJECT_ID":"2020-035AZ","ECCENTRICITY":"0.00012540","OBJECT_NAME":"STARLINK-1409","ARG_OF_PERICENTER":"69.4605","MEAN_MOTION_DOT":"-0.00007766","OBJECT_TYPE":"PAYLOAD","BSTAR":"-0.00050273000000","ELEMENT_SET_NO":"999","RA_OF_ASC_NODE":"3.2279","NORAD_CAT_ID":"45704","CENTER_NAME":"EARTH","PERIOD":"95.591","EPHEMERIS_TYPE":"0","TIME_SYSTEM":"UTC","FILE":"3576621","MEAN_ELEMENT_THEORY":"SGP4"},{"MEAN_MOTION_DOT":"0.00002580","ARG_OF_PERICENTER":"80.5715","OBJECT_NAME":"STARLINK-1410","OBJECT_ID":"2020-035BA","TLE_LINE1":"1 45705U 20035BA  22260.68765048  .00002580  00000-0  19203-3 0  9990","REF_FRAME":"TEME","ECCENTRICITY":"0.00014100","EPHEMERIS_TYPE":"0","PERIOD":"95.592","FILE":"3576621","MEAN_ELEMENT_THEORY":"SGP4","TIME_SYSTEM":"UTC","ELEMENT_SET_NO":"999","BSTAR":"0.00019203000000","OBJECT_TYPE":"PAYLOAD","CENTER_NAME":"EARTH","NORAD_CAT_ID":"45705","RA_OF_ASC_NODE":"3.3804","MEAN_MOTION":"15.06400164","GP_ID":"212867466","MEAN_MOTION_DDOT":"0.0000000000000","LAUNCH_DATE":"2020-06-04","REV_AT_EPOCH":"12745","SEMIMAJOR_AXIS":"6925.348","CLASSIFICATION_TYPE":"U","APOAPSIS":"548.190","INCLINATION":"53.0548","MEAN_ANOMALY":"279.5433","EPOCH":"2022-09-17T16:30:13.001472","RCS_SIZE":"LARGE","DECAY_DATE":null,"SITE":"AFETR","PERIAPSIS":"546.237","COUNTRY_CODE":"US","TLE_LINE2":"2 45705  53.0548   3.3804 0001410  80.5715 279.5433 15.06400164127457"},{"OBJECT_TYPE":"PAYLOAD","ELEMENT_SET_NO":"999","BSTAR":"-0.00029800000000","RA_OF_ASC_NODE":"333.4208","NORAD_CAT_ID":"45706","CENTER_NAME":"EARTH","PERIOD":"95.591","EPHEMERIS_TYPE":"0","TIME_SYSTEM":"UTC","FILE":"3576621","MEAN_ELEMENT_THEORY":"SGP4","REF_FRAME":"TEME","TLE_LINE1":"1 45706U 20035BB  22260.67935155 -.00004720  00000-0 -29800-3 0  9992","OBJECT_ID":"2020-035BB","ECCENTRICITY":"0.00013570","ARG_OF_PERICENTER":"96.5528","OBJECT_NAME":"STARLINK-1411","MEAN_MOTION_DOT":"-0.00004720","COUNTRY_CODE":"US","PERIAPSIS":"546.201","SITE":"AFETR","DECAY_DATE":null,"TLE_LINE2":"2 45706  53.0553 333.4208 0001357  96.5528 263.5615 15.06423859127875","EPOCH":"2022-09-17T16:18:15.973920","INCLINATION":"53.0553","MEAN_ANOMALY":"263.5615","RCS_SIZE":"LARGE","CLASSIFICATION_TYPE":"U","SEMIMAJOR_AXIS":"6925.275","APOAPSIS":"548.080","GP_ID":"212868189","MEAN_MOTION":"15.06423859","LAUNCH_DATE":"2020-06-04","REV_AT_EPOCH":"12787","MEAN_MOTION_DDOT":"0.0000000000000"},{"PERIAPSIS":"546.303","SITE":"AFETR","DECAY_DATE":null,"COUNTRY_CODE":"US","TLE_LINE2":"2 45707  53.0566 333.7531 0001343  81.4623 278.6519 15.06393665127877","MEAN_ANOMALY":"278.6519","INCLINATION":"53.0566","EPOCH":"2022-09-17T14:37:26.239872","RCS_SIZE":"LARGE","CLASSIFICATION_TYPE":"U","SEMIMAJOR_AXIS":"6925.368","APOAPSIS":"548.163","MEAN_MOTION":"15.06393665","GP_ID":"212866968","REV_AT_EPOCH":"12787","LAUNCH_DATE":"2020-06-04","MEAN_MOTION_DDOT":"0.0000000000000","ELEMENT_SET_NO":"999","BSTAR":"0.00007460400000","OBJECT_TYPE":"PAYLOAD","NORAD_CAT_ID":"45707","CENTER_NAME":"EARTH","RA_OF_ASC_NODE":"333.7531","EPHEMERIS_TYPE":"0","PERIOD":"95.593","TIME_SYSTEM":"UTC","FILE":"3576621","MEAN_ELEMENT_THEORY":"SGP4","OBJECT_ID":"2020-035BC","REF_FRAME":"TEME","TLE_LINE1":"1 45707U 20035BC  22260.60933148  .00000830  00000-0  74604-4 0  9995","ECCENTRICITY":"0.00013430","MEAN_MOTION_DOT":"0.00000830","OBJECT_NAME":"STARLINK-1412","ARG_OF_PERICENTER":"81.4623"},{"APOAPSIS":"548.157","SEMIMAJOR_AXIS":"6925.371","CLASSIFICATION_TYPE":"U","LAUNCH_DATE":"2020-06-04","MEAN_MOTION_DDOT":"0.0000000000000","REV_AT_EPOCH":"12787","MEAN_MOTION":"15.06392785","GP_ID":"212867218","TLE_LINE2":"2 45708  53.0571 333.8519 0001331  83.9239 276.1902 15.06392785127879","SITE":"AFETR","DECAY_DATE":null,"PERIAPSIS":"546.314","COUNTRY_CODE":"US","RCS_SIZE":"LARGE","MEAN_ANOMALY":"276.1902","INCLINATION":"53.0571","EPOCH":"2022-09-17T14:00:17.838720","ECCENTRICITY":"0.00013310","OBJECT_ID":"2020-035BD","TLE_LINE1":"1 45708U 20035BD  22260.58353980 -.00001016  00000-0 -49367-4 0  9990","REF_FRAME":"TEME","MEAN_MOTION_DOT":"-0.00001016","ARG_OF_PERICENTER":"83.9239","OBJECT_NAME":"STARLINK-1418","CENTER_NAME":"EARTH","NORAD_CAT_ID":"45708","RA_OF_ASC_NODE":"333.8519","ELEMENT_SET_NO":"999","BSTAR":"-0.00004936700000","OBJECT_TYPE":"PAYLOAD","MEAN_ELEMENT_THEORY":"SGP4","FILE":"3576621","TIME_SYSTEM":"UTC","EPHEMERIS_TYPE":"0","PERIOD":"95.593"}];
